[{"OBJECT_NAME":"ICEYE-X63","OBJECT_ID":"2026-004K","EPOCH":"2026-03-09T23:23:40.922880","MEAN_MOTION":14.88075839,"ECCENTRICITY":0.00058015,"INCLINATION":97.8005,"RA_OF_ASC_NODE":69.1882,"ARG_OF_PERICENTER":95.6697,"MEAN_ANOMALY":264.5181,"EPHEMERIS_TYPE":0,"CLASSIFICATION_TYPE":"U","NORAD_CAT_ID":67372,"ELEMENT_SET_NO":999,"REV_AT_EPOCH":854,"BSTAR":0.00030090625,"MEAN_MOTION_DOT":2.713e-5,"MEAN_MOTION_DDOT":0},{"OBJECT_NAME":"CZ-4B DEB","OBJECT_ID":"1999-057P","EPOCH":"2026-03-09T10:31:29.691840","MEAN_MOTION":14.91091708,"ECCENTRICITY":0.00558084,"INCLINATION":98.442,"RA_OF_ASC_NODE":235.9963,"ARG_OF_PERICENTER":58.1221,"MEAN_ANOMALY":355.8675,"EPHEMERIS_TYPE":0,"CLASSIFICATION_TYPE":"U","NORAD_CAT_ID":26127,"ELEMENT_SET_NO":999,"REV_AT_EPOCH":36984,"BSTAR":0.001630359,"MEAN_MOTION_DOT":0.00016608,"MEAN_MOTION_DDOT":0}]
